{"type": "FeatureCollection", "features": [ {"type": "Feature", "properties": {"norad_id": 34141, "name": "COSMOS 2251 DEB", "group": "cosmos-2251-debris", "lat": -37.17624951154909, "lon": -121.81478114992352, "alt_km": 731.0398728399896, "timestamp": "2025-12-03T19:33:07.371154+00:00", "meta": {"OBJECT_NAME": "COSMOS 2251 DEB", "OBJECT_ID": "1993-036LN", "EPOCH": "2025-12-03T05:34:20.592192", "MEAN_MOTION": 14.49052952, "ECCENTRICITY": 0.0048411, "INCLINATION": 74.0118, "RA_OF_ASC_NODE": 46.72, "ARG_OF_PERICENTER": 135.9623, "MEAN_ANOMALY": 284.9718, "EPHEMERIS_TYPE": 0, "CLASSIFICATION_TYPE": "U", "NORAD_CAT_ID": 34141, "ELEMENT_SET_NO": 999, "REV_AT_EPOCH": 87556, "BSTAR": 0.0022965, "MEAN_MOTION_DOT": 8.833e-05, "MEAN_MOTION_DDOT": 0}, "tle": {"line1": "1 34141U 93036LN  25337.23218278  .00008833  00000+0  22965-2 0  9994", "line2": "2 34141  74.0118  46.7200 0048411 135.9623 284.9718 14.49052952875563"}}, "geometry": {"type": "Point", "coordinates": [-121.81478114992352, -37.17624951154909]}}, {"type": "Feature", "properties": {"norad_id": 34270, "name": "COSMOS 2251 DEB", "group": "cosmos-2251-debris", "lat": 21.086940796909197, "lon": -29.826672821613872, "alt_km": 680.4839989813945, "timestamp": "2025-12-03T19:33:07.371164+00:00", "meta": {"OBJECT_NAME": "COSMOS 2251 DEB", "OBJECT_ID": "1993-036LQ", "EPOCH": "2025-12-03T09:37:07.990752", "MEAN_MOTION": 14.65081948, "ECCENTRICITY": 0.0047848, "INCLINATION": 74.0113, "RA_OF_ASC_NODE": 324.6227, "ARG_OF_PERICENTER": 120.2849, "MEAN_ANOMALY": 240.3067, "EPHEMERIS_TYPE": 0, "CLASSIFICATION_TYPE": "U", "NORAD_CAT_ID": 34270, "ELEMENT_SET_NO": 999, "REV_AT_EPOCH": 88959, "BSTAR": 0.00070844, "MEAN_MOTION_DOT": 3.838e-05, "MEAN_MOTION_DDOT": 0}, "tle": {"line1": "1 34270U 93036LQ  25337.40078693  .00003838  00000+0  70844-3 0  9991", "line2": "2 34270  74.0113 324.6227 0047848 120.2849 240.3067 14.65081948889594"}}, "geometry": {"type": "Point", "coordinates": [-29.826672821613872, 21.086940796909197]}}, {"type": "Feature", "properties": {"norad_id": 34271, "name": "COSMOS 2251 DEB", "group": "cosmos-2251-debris", "lat": 26.568932644853714, "lon": 28.425831300608326, "alt_km": 665.2284864151507, "timestamp": "2025-12-03T19:33:07.371174+00:00", "meta": {"OBJECT_NAME": "COSMOS 2251 DEB", "OBJECT_ID": "1993-036LR", "EPOCH": "2025-12-03T03:13:29.779680", "MEAN_MOTION": 14.70407197, "ECCENTRICITY": 0.0019792, "INCLINATION": 74.0207, "RA_OF_ASC_NODE": 217.985, "ARG_OF_PERICENTER": 273.2081, "MEAN_ANOMALY": 239.5046, "EPHEMERIS_TYPE": 0, "CLASSIFICATION_TYPE": "U", "NORAD_CAT_ID": 34271, "ELEMENT_SET_NO": 999, "REV_AT_EPOCH": 88093, "BSTAR": 0.0025987006, "MEAN_MOTION_DOT": 0.00015783, "MEAN_MOTION_DDOT": 0}, "tle": {"line1": "1 34271U 93036LR  25337.13437245  .00015783  00000+0  25987-2 0  9993", "line2": "2 34271  74.0207 217.9850 0019792 273.2081 239.5046 14.70407197880939"}}, "geometry": {"type": "Point", "coordinates": [28.425831300608326, 26.568932644853714]}}, {"type": "Feature", "properties": {"norad_id": 34273, "name": "COSMOS 2251 DEB", "group": "cosmos-2251-debris", "lat": 60.42749038198957, "lon": -105.80897396893296, "alt_km": 687.7133181592462, "timestamp": "2025-12-03T19:33:07.371183+00:00", "meta": {"OBJECT_NAME": "COSMOS 2251 DEB", "OBJECT_ID": "1993-036LT", "EPOCH": "2025-12-03T01:29:53.353248", "MEAN_MOTION": 14.61061856, "ECCENTRICITY": 0.00145346, "INCLINATION": 74.0346, "RA_OF_ASC_NODE": 105.9272, "ARG_OF_PERICENTER": 231.137, "MEAN_ANOMALY": 249.1249, "EPHEMERIS_TYPE": 0, "CLASSIFICATION_TYPE": "U", "NORAD_CAT_ID": 34273, "ELEMENT_SET_NO": 999, "REV_AT_EPOCH": 88480, "BSTAR": 0.0015659056, "MEAN_MOTION_DOT": 7.682e-05, "MEAN_MOTION_DDOT": 0}, "tle": {"line1": "1 34273U 93036LT  25337.06242307  .00007682  00000+0  15659-2 0  9994", "line2": "2 34273  74.0346 105.9272 0014534 231.1370 249.1249 14.61061856884802"}}, "geometry": {"type": "Point", "coordinates": [-105.80897396893296, 60.42749038198957]}}, {"type": "Feature", "properties": {"norad_id": 34274, "name": "COSMOS 2251 DEB", "group": "cosmos-2251-debris", "lat": 72.85536480492719, "lon": 154.17258424325686, "alt_km": 685.1630919601212, "timestamp": "2025-12-03T19:33:07.371194+00:00", "meta": {"OBJECT_NAME": "COSMOS 2251 DEB", "OBJECT_ID": "1993-036LU", "EPOCH": "2025-12-03T07:59:00.236832", "MEAN_MOTION": 14.64574589, "ECCENTRICITY": 0.0022598, "INCLINATION": 74.0043, "RA_OF_ASC_NODE": 86.688, "ARG_OF_PERICENTER": 237.0487, "MEAN_ANOMALY": 186.4234, "EPHEMERIS_TYPE": 0, "CLASSIFICATION_TYPE": "U", "NORAD_CAT_ID": 34274, "ELEMENT_SET_NO": 999, "REV_AT_EPOCH": 88538, "BSTAR": 0.0018658, "MEAN_MOTION_DOT": 9.925e-05, "MEAN_MOTION_DDOT": 0}, "tle": {"line1": "1 34274U 93036LU  25337.33264163  .00009925  00000+0  18658-2 0  9993", "line2": "2 34274  74.0043  86.6880 0022598 237.0487 186.4234 14.64574589885386"}}, "geometry": {"type": "Point", "coordinates": [154.17258424325686, 72.85536480492719]}}, {"type": "Feature", "properties": {"norad_id": 34276, "name": "COSMOS 2251 DEB", "group": "cosmos-2251-debris", "lat": -72.54429365063913, "lon": -12.047729136388408, "alt_km": 693.7469836300661, "timestamp": "2025-12-03T19:33:07.371204+00:00", "meta": {"OBJECT_NAME": "COSMOS 2251 DEB", "OBJECT_ID": "1993-036LW", "EPOCH": "2025-12-02T18:13:28.921728", "MEAN_MOTION": 14.571029, "ECCENTRICITY": 0.00228161, "INCLINATION": 74.0225, "RA_OF_ASC_NODE": 104.2932, "ARG_OF_PERICENTER": 251.6147, "MEAN_ANOMALY": 237.7712, "EPHEMERIS_TYPE": 0, "CLASSIFICATION_TYPE": "U", "NORAD_CAT_ID": 34276, "ELEMENT_SET_NO": 999, "REV_AT_EPOCH": 88447, "BSTAR": 0.0011955776, "MEAN_MOTION_DOT": 5.381e-05, "MEAN_MOTION_DDOT": 0}, "tle": {"line1": "1 34276U 93036LW  25336.75936252  .00005381  00000+0  11956-2 0  9991", "line2": "2 34276  74.0225 104.2932 0022816 251.6147 237.7712 14.57102900884479"}}, "geometry": {"type": "Point", "coordinates": [-12.047729136388408, -72.54429365063913]}}, {"type": "Feature", "properties": {"norad_id": 34297, "name": "COSMOS 2251 DEB", "group": "cosmos-2251-debris", "lat": -33.32954916728903, "lon": 131.46307994147867, "alt_km": 786.5465396194459, "timestamp": "2025-12-03T19:33:07.371214+00:00", "meta": {"OBJECT_NAME": "COSMOS 2251 DEB", "OBJECT_ID": "1993-036MT", "EPOCH": "2025-12-03T09:17:05.362368", "MEAN_MOTION": 14.36615048, "ECCENTRICITY": 0.0016856, "INCLINATION": 74.0482, "RA_OF_ASC_NODE": 301.4069, "ARG_OF_PERICENTER": 12.1547, "MEAN_ANOMALY": 151.0596, "EPHEMERIS_TYPE": 0, "CLASSIFICATION_TYPE": "U", "NORAD_CAT_ID": 34297, "ELEMENT_SET_NO": 999, "REV_AT_EPOCH": 87930, "BSTAR": 0.00022088, "MEAN_MOTION_DOT": 6.25e-06, "MEAN_MOTION_DDOT": 0}, "tle": {"line1": "1 34297U 93036MT  25337.38686762  .00000625  00000+0  22088-3 0  9997", "line2": "2 34297  74.0482 301.4069 0016856  12.1547 151.0596 14.36615048879303"}}, "geometry": {"type": "Point", "coordinates": [131.46307994147867, -33.32954916728903]}}, {"type": "Feature", "properties": {"norad_id": 34299, "name": "COSMOS 2251 DEB", "group": "cosmos-2251-debris", "lat": -69.8055491719657, "lon": -56.697196731196264, "alt_km": 408.69373869670653, "timestamp": "2025-12-03T19:33:07.371224+00:00", "meta": {"OBJECT_NAME": "COSMOS 2251 DEB", "OBJECT_ID": "1993-036MV", "EPOCH": "2025-12-03T02:56:38.084928", "MEAN_MOTION": 15.5874635, "ECCENTRICITY": 0.00249226, "INCLINATION": 73.9827, "RA_OF_ASC_NODE": 356.2016, "ARG_OF_PERICENTER": 62.6984, "MEAN_ANOMALY": 297.6767, "EPHEMERIS_TYPE": 0, "CLASSIFICATION_TYPE": "U", "NORAD_CAT_ID": 34299, "ELEMENT_SET_NO": 999, "REV_AT_EPOCH": 88860, "BSTAR": 0.0062172696, "MEAN_MOTION_DOT": 0.00517253, "MEAN_MOTION_DDOT": 0}, "tle": {"line1": "1 34299U 93036MV  25337.12266302  .00517253  00000+0  62173-2 0  9993", "line2": "2 34299  73.9827 356.2016 0024922  62.6984 297.6767 15.58746350888600"}}, "geometry": {"type": "Point", "coordinates": [-56.697196731196264, -69.8055491719657]}}, {"type": "Feature", "properties": {"norad_id": 34301, "name": "COSMOS 2251 DEB", "group": "cosmos-2251-debris", "lat": 66.85645208737802, "lon": -133.42299707253747, "alt_km": 618.9570437388502, "timestamp": "2025-12-03T19:33:07.371234+00:00", "meta": {"OBJECT_NAME": "COSMOS 2251 DEB", "OBJECT_ID": "1993-036MX", "EPOCH": "2025-12-03T00:29:19.044384", "MEAN_MOTION": 14.837811, "ECCENTRICITY": 0.00124006, "INCLINATION": 74.0064, "RA_OF_ASC_NODE": 186.0071, "ARG_OF_PERICENTER": 244.9578, "MEAN_ANOMALY": 266.9815, "EPHEMERIS_TYPE": 0, "CLASSIFICATION_TYPE": "U", "NORAD_CAT_ID": 34301, "ELEMENT_SET_NO": 999, "REV_AT_EPOCH": 88256, "BSTAR": 0.0031794263, "MEAN_MOTION_DOT": 0.00026438, "MEAN_MOTION_DDOT": 0}, "tle": {"line1": "1 34301U 93036MX  25337.02035931  .00026438  00000+0  31794-2 0  9993", "line2": "2 34301  74.0064 186.0071 0012400 244.9578 266.9815 14.83781100882562"}}, "geometry": {"type": "Point", "coordinates": [-133.42299707253747, 66.85645208737802]}}, {"type": "Feature", "properties": {"norad_id": 34302, "name": "COSMOS 2251 DEB", "group": "cosmos-2251-debris", "lat": 15.332729097868885, "lon": -44.54848174649402, "alt_km": 815.5160561714092, "timestamp": "2025-12-03T19:33:07.371244+00:00", "meta": {"OBJECT_NAME": "COSMOS 2251 DEB", "OBJECT_ID": "1993-036MY", "EPOCH": "2025-12-03T10:35:11.637888", "MEAN_MOTION": 14.39272787, "ECCENTRICITY": 0.0078201, "INCLINATION": 74.1772, "RA_OF_ASC_NODE": 140.5943, "ARG_OF_PERICENTER": 358.5629, "MEAN_ANOMALY": 30.3822, "EPHEMERIS_TYPE": 0, "CLASSIFICATION_TYPE": "U", "NORAD_CAT_ID": 34302, "ELEMENT_SET_NO": 999, "REV_AT_EPOCH": 87587, "BSTAR": 0.0009298, "MEAN_MOTION_DOT": 2.966e-05, "MEAN_MOTION_DDOT": 0}, "tle": {"line1": "1 34302U 93036MY  25337.44110692  .00002966  00000+0  92980-3 0  9993", "line2": "2 34302  74.1772 140.5943 0078201 358.5629  30.3822 14.39272787875877"}}, "geometry": {"type": "Point", "coordinates": [-44.54848174649402, 15.332729097868885]}}]}